SL-16 R/B               
1 22566U 93016B   26035.84430258  .00000015  00000+0  31916-4 0  9999
2 22566  71.0079 284.1701 0010059 359.8467   0.2651 14.15303933697522
COSMOS 2242             
1 22626U 93024A   26035.80510495  .00003075  00000+0  26828-3 0  9997
2 22626  82.5197 298.1676 0017847  58.5274 301.7690 14.96407625775479
SL-16 R/B               
1 22803U 93059B   26035.65658256  .00000285  00000+0  16452-3 0  9995
2 22803  70.9893  80.7902 0019486 261.6284  98.2631 14.17225433674857
ARIANE 40 R/B           
1 22830U 93061H   26035.80822485  .00000267  00000+0  11360-3 0  9995
2 22830  98.4986 105.3334 0011056  27.5404 332.6364 14.32843020689394
COSMOS 2278             
1 23087U 94023A   26035.85244927 -.00000225  00000+0 -93111-4 0  9994
2 23087  71.0506 243.7992 0006451  75.3147 284.8691 14.14364616640161
SL-16 R/B               
1 23088U 94023B   26035.70174623 -.00000119  00000+0 -36847-4 0  9999
2 23088  71.0000 140.1668 0004436 316.0138  44.0631 14.15003668641425
SL-16 R/B               
1 23343U 94074B   26035.72440640  .00000615  00000+0  89169-4 0  9990
2 23343  97.7151  67.8709 0005988 341.3575 108.7382 14.79367426682376
SL-16 R/B               
1 23405U 94077B   26035.48424785 -.00000106  00000+0 -29890-4 0  9999
2 23405  70.9814  62.3478 0004485 240.9040 119.1634 14.15556586611532
ARIANE 40+ R/B          
1 23561U 95021B   26035.74626663  .00000381  00000+0  13561-3 0  9990
2 23561  98.4565 107.6641 0005874 234.3430 236.7673 14.39747397614508
SL-16 R/B               
1 23705U 95058B   26035.84295125  .00000256  00000+0  15539-3 0  9994
2 23705  71.0188 249.2162 0012521 179.4270 180.6869 14.15489873563205
SL-16 R/B               
1 24298U 96051B   26035.80908643  .00000079  00000+0  69484-4 0  9990
2 24298  70.7566 244.8361 0017817 193.7629 166.3007 14.12406266517005
ORBVIEW 2 (SEASTAR)     
1 24883U 97037A   26035.44850177  .00000346  00000+0  13676-3 0  9991
2 24883  98.8508 198.8905 0002778 140.1754 219.9634 14.35467949503702
