CCSDS_OMM_VERS = 2.0
CREATION_DATE  = 
ORIGINATOR     = 

OBJECT_NAME    = SL-16 R/B
OBJECT_ID      = 1993-016B
CENTER_NAME    = EARTH
REF_FRAME      = TEME
TIME_SYSTEM    = UTC
MEAN_ELEMENT_THEORY = SGP/SGP4

EPOCH          = 2026-02-04T20:15:47.742912
MEAN_MOTION    = 14.15303933
ECCENTRICITY   = .0010059
INCLINATION    = 71.0079
RA_OF_ASC_NODE = 284.1701
ARG_OF_PERICENTER = 359.8467
MEAN_ANOMALY   = 0.2651

EPHEMERIS_TYPE = 0
CLASSIFICATION_TYPE = U
NORAD_CAT_ID   = 22566
ELEMENT_SET_NO = 999
REV_AT_EPOCH   = 69752
BSTAR          = .31916E-4
MEAN_MOTION_DOT = .15E-6
MEAN_MOTION_DDOT = 0

CCSDS_OMM_VERS = 2.0
CREATION_DATE  = 
ORIGINATOR     = 

OBJECT_NAME    = COSMOS 2242
OBJECT_ID      = 1993-024A
CENTER_NAME    = EARTH
REF_FRAME      = TEME
TIME_SYSTEM    = UTC
MEAN_ELEMENT_THEORY = SGP/SGP4

EPOCH          = 2026-02-04T19:19:21.067680
MEAN_MOTION    = 14.96407625
ECCENTRICITY   = .0017847
INCLINATION    = 82.5197
RA_OF_ASC_NODE = 298.1676
ARG_OF_PERICENTER = 58.5274
MEAN_ANOMALY   = 301.7690

EPHEMERIS_TYPE = 0
CLASSIFICATION_TYPE = U
NORAD_CAT_ID   = 22626
ELEMENT_SET_NO = 999
REV_AT_EPOCH   = 77547
BSTAR          = .26828E-3
MEAN_MOTION_DOT = .3075E-4
MEAN_MOTION_DDOT = 0

CCSDS_OMM_VERS = 2.0
CREATION_DATE  = 
ORIGINATOR     = 

OBJECT_NAME    = SL-16 R/B
OBJECT_ID      = 1993-059B
CENTER_NAME    = EARTH
REF_FRAME      = TEME
TIME_SYSTEM    = UTC
MEAN_ELEMENT_THEORY = SGP/SGP4

EPOCH          = 2026-02-04T15:45:28.733184
MEAN_MOTION    = 14.17225433
ECCENTRICITY   = .0019486
INCLINATION    = 70.9893
RA_OF_ASC_NODE = 80.7902
ARG_OF_PERICENTER = 261.6284
MEAN_ANOMALY   = 98.2631

EPHEMERIS_TYPE = 0
CLASSIFICATION_TYPE = U
NORAD_CAT_ID   = 22803
ELEMENT_SET_NO = 999
REV_AT_EPOCH   = 67485
BSTAR          = .16452E-3
MEAN_MOTION_DOT = .285E-5
MEAN_MOTION_DDOT = 0

CCSDS_OMM_VERS = 2.0
CREATION_DATE  = 
ORIGINATOR     = 

OBJECT_NAME    = ARIANE 40 R/B
OBJECT_ID      = 1993-061H
CENTER_NAME    = EARTH
REF_FRAME      = TEME
TIME_SYSTEM    = UTC
MEAN_ELEMENT_THEORY = SGP/SGP4

EPOCH          = 2026-02-04T19:23:50.627040
MEAN_MOTION    = 14.32843020
ECCENTRICITY   = .0011056
INCLINATION    = 98.4986
RA_OF_ASC_NODE = 105.3334
ARG_OF_PERICENTER = 27.5404
MEAN_ANOMALY   = 332.6364

EPHEMERIS_TYPE = 0
CLASSIFICATION_TYPE = U
NORAD_CAT_ID   = 22830
ELEMENT_SET_NO = 999
REV_AT_EPOCH   = 68939
BSTAR          = .1136E-3
MEAN_MOTION_DOT = .267E-5
MEAN_MOTION_DDOT = 0

CCSDS_OMM_VERS = 2.0
CREATION_DATE  = 
ORIGINATOR     = 

OBJECT_NAME    = COSMOS 2278
OBJECT_ID      = 1994-023A
CENTER_NAME    = EARTH
REF_FRAME      = TEME
TIME_SYSTEM    = UTC
MEAN_ELEMENT_THEORY = SGP/SGP4

EPOCH          = 2026-02-04T20:27:31.616928
MEAN_MOTION    = 14.14364616
ECCENTRICITY   = .0006451
INCLINATION    = 71.0506
RA_OF_ASC_NODE = 243.7992
ARG_OF_PERICENTER = 75.3147
MEAN_ANOMALY   = 284.8691

EPHEMERIS_TYPE = 0
CLASSIFICATION_TYPE = U
NORAD_CAT_ID   = 23087
ELEMENT_SET_NO = 999
REV_AT_EPOCH   = 64016
BSTAR          = -.93111E-4
MEAN_MOTION_DOT = -.225E-5
MEAN_MOTION_DDOT = 0

CCSDS_OMM_VERS = 2.0
CREATION_DATE  = 
ORIGINATOR     = 

OBJECT_NAME    = SL-16 R/B
OBJECT_ID      = 1994-023B
CENTER_NAME    = EARTH
REF_FRAME      = TEME
TIME_SYSTEM    = UTC
MEAN_ELEMENT_THEORY = SGP/SGP4

EPOCH          = 2026-02-04T16:50:30.874272
MEAN_MOTION    = 14.15003668
ECCENTRICITY   = .0004436
INCLINATION    = 71.0000
RA_OF_ASC_NODE = 140.1668
ARG_OF_PERICENTER = 316.0138
MEAN_ANOMALY   = 44.0631

EPHEMERIS_TYPE = 0
CLASSIFICATION_TYPE = U
NORAD_CAT_ID   = 23088
ELEMENT_SET_NO = 999
REV_AT_EPOCH   = 64142
BSTAR          = -.36847E-4
MEAN_MOTION_DOT = -.119E-5
MEAN_MOTION_DDOT = 0

CCSDS_OMM_VERS = 2.0
CREATION_DATE  = 
ORIGINATOR     = 

OBJECT_NAME    = SL-16 R/B
OBJECT_ID      = 1994-074B
CENTER_NAME    = EARTH
REF_FRAME      = TEME
TIME_SYSTEM    = UTC
MEAN_ELEMENT_THEORY = SGP/SGP4

EPOCH          = 2026-02-04T17:23:08.712960
MEAN_MOTION    = 14.79367426
ECCENTRICITY   = .0005988
INCLINATION    = 97.7151
RA_OF_ASC_NODE = 67.8709
ARG_OF_PERICENTER = 341.3575
MEAN_ANOMALY   = 108.7382

EPHEMERIS_TYPE = 0
CLASSIFICATION_TYPE = U
NORAD_CAT_ID   = 23343
ELEMENT_SET_NO = 999
REV_AT_EPOCH   = 68237
BSTAR          = .89169E-4
MEAN_MOTION_DOT = .615E-5
MEAN_MOTION_DDOT = 0

CCSDS_OMM_VERS = 2.0
CREATION_DATE  = 
ORIGINATOR     = 

OBJECT_NAME    = SL-16 R/B
OBJECT_ID      = 1994-077B
CENTER_NAME    = EARTH
REF_FRAME      = TEME
TIME_SYSTEM    = UTC
MEAN_ELEMENT_THEORY = SGP/SGP4

EPOCH          = 2026-02-04T11:37:19.014240
MEAN_MOTION    = 14.15556586
ECCENTRICITY   = .0004485
INCLINATION    = 70.9814
RA_OF_ASC_NODE = 62.3478
ARG_OF_PERICENTER = 240.9040
MEAN_ANOMALY   = 119.1634

EPHEMERIS_TYPE = 0
CLASSIFICATION_TYPE = U
NORAD_CAT_ID   = 23405
ELEMENT_SET_NO = 999
REV_AT_EPOCH   = 61153
BSTAR          = -.2989E-4
MEAN_MOTION_DOT = -.106E-5
MEAN_MOTION_DDOT = 0

CCSDS_OMM_VERS = 2.0
CREATION_DATE  = 
ORIGINATOR     = 

OBJECT_NAME    = ARIANE 40+ R/B
OBJECT_ID      = 1995-021B
CENTER_NAME    = EARTH
REF_FRAME      = TEME
TIME_SYSTEM    = UTC
MEAN_ELEMENT_THEORY = SGP/SGP4

EPOCH          = 2026-02-04T17:54:37.436832
MEAN_MOTION    = 14.39747397
ECCENTRICITY   = .0005874
INCLINATION    = 98.4565
RA_OF_ASC_NODE = 107.6641
ARG_OF_PERICENTER = 234.3430
MEAN_ANOMALY   = 236.7673

EPHEMERIS_TYPE = 0
CLASSIFICATION_TYPE = U
NORAD_CAT_ID   = 23561
ELEMENT_SET_NO = 999
REV_AT_EPOCH   = 61450
BSTAR          = .13561E-3
MEAN_MOTION_DOT = .381E-5
MEAN_MOTION_DDOT = 0

CCSDS_OMM_VERS = 2.0
CREATION_DATE  = 
ORIGINATOR     = 

OBJECT_NAME    = SL-16 R/B
OBJECT_ID      = 1995-058B
CENTER_NAME    = EARTH
REF_FRAME      = TEME
TIME_SYSTEM    = UTC
MEAN_ELEMENT_THEORY = SGP/SGP4

EPOCH          = 2026-02-04T20:13:50.988000
MEAN_MOTION    = 14.15489873
ECCENTRICITY   = .0012521
INCLINATION    = 71.0188
RA_OF_ASC_NODE = 249.2162
ARG_OF_PERICENTER = 179.4270
MEAN_ANOMALY   = 180.6869

EPHEMERIS_TYPE = 0
CLASSIFICATION_TYPE = U
NORAD_CAT_ID   = 23705
ELEMENT_SET_NO = 999
REV_AT_EPOCH   = 56320
BSTAR          = .15539E-3
MEAN_MOTION_DOT = .256E-5
MEAN_MOTION_DDOT = 0

CCSDS_OMM_VERS = 2.0
CREATION_DATE  = 
ORIGINATOR     = 

OBJECT_NAME    = SL-16 R/B
OBJECT_ID      = 1996-051B
CENTER_NAME    = EARTH
REF_FRAME      = TEME
TIME_SYSTEM    = UTC
MEAN_ELEMENT_THEORY = SGP/SGP4

EPOCH          = 2026-02-04T19:25:05.067552
MEAN_MOTION    = 14.12406266
ECCENTRICITY   = .0017817
INCLINATION    = 70.7566
RA_OF_ASC_NODE = 244.8361
ARG_OF_PERICENTER = 193.7629
MEAN_ANOMALY   = 166.3007

EPHEMERIS_TYPE = 0
CLASSIFICATION_TYPE = U
NORAD_CAT_ID   = 24298
ELEMENT_SET_NO = 999
REV_AT_EPOCH   = 51700
BSTAR          = .69484E-4
MEAN_MOTION_DOT = .79E-6
MEAN_MOTION_DDOT = 0

CCSDS_OMM_VERS = 2.0
CREATION_DATE  = 
ORIGINATOR     = 

OBJECT_NAME    = ORBVIEW 2 (SEASTAR)
OBJECT_ID      = 1997-037A
CENTER_NAME    = EARTH
REF_FRAME      = TEME
TIME_SYSTEM    = UTC
MEAN_ELEMENT_THEORY = SGP/SGP4

EPOCH          = 2026-02-04T10:45:50.552928
MEAN_MOTION    = 14.35467949
ECCENTRICITY   = .0002778
INCLINATION    = 98.8508
RA_OF_ASC_NODE = 198.8905
ARG_OF_PERICENTER = 140.1754
MEAN_ANOMALY   = 219.9634

EPHEMERIS_TYPE = 0
CLASSIFICATION_TYPE = U
NORAD_CAT_ID   = 24883
ELEMENT_SET_NO = 999
REV_AT_EPOCH   = 50370
BSTAR          = .13676E-3
MEAN_MOTION_DOT = .346E-5
MEAN_MOTION_DDOT = 0

